0 OV1-19 R/B
1 03827U 69025E   13281.97231701  .00000546  00000-0  30034-3 0  2651
2 03827 104.6973 121.0422 2635975 270.0429 060.2012 09.64906192551834
0 OV1-19 R/B
1 03827U 69025E   13284.04561738  .00000600  00000-0  32708-3 0  2660
2 03827 104.6968 122.6483 2635998 267.8964 062.1474 09.64908333552030
0 OV1-19 R/B
1 03827U 69025E   13286.53358505  .00000630  00000-0  34231-3 0  2679
2 03827 104.6963 124.5757 2635982 265.3209 064.5347 09.64910708552278
0 OV1-19 R/B
1 03827U 69025E   13289.02156231  .00000687  00000-0  37123-3 0  2684
2 03827 104.6961 126.5033 2635935 262.7457 066.9804 09.64916227552512
0 OV1-19 R/B
1 03827U 69025E   13291.50954332  .00000703  00000-0  37877-3 0  2694
2 03827 104.6963 128.4308 2635923 260.1720 069.4844 09.64919495552750
0 OV1-19 R/B
1 03827U 69025E   13293.99753341  .00000832  00000-0  44351-3 0  2706
2 03827 104.6965 130.3580 2635953 257.5981 072.0500 09.64923538552996
